ONEWEB-0199             
1 48234U 21031AA  25050.90305772  .00000154  00000+0  38184-3 0  9999
2 48234  87.9027  25.5802 0001870  89.3710 270.7634 13.14501939184909
ONEWEB-0197             
1 48236U 21031AC  25050.94506112 -.00000115  00000+0 -34374-3 0  9992
2 48236  87.9029  25.5845 0001511  83.2445 276.8856 13.14503925184832
ONEWEB-0194             
1 48237U 21031AD  25050.92367163  .00000220  00000+0  55872-3 0  9993
2 48237  87.9032  25.5840 0001955  91.8720 268.2634 13.14502163185007
ONEWEB-0193             
1 48238U 21031AE  25050.93951960 -.00000059  00000+0 -19423-3 0  9993
2 48238  87.9031  25.5888 0001988  84.1858 275.9498 13.14504116184958
ONEWEB-0191             
1 48239U 21031AF  25050.95062379 -.00000205  00000+0 -58730-3 0  9990
2 48239  87.9029  25.5628 0001990  83.1780 276.9576 13.14501590184810
ONEWEB-0195             
1 48240U 21031AG  25050.92763814  .00000142  00000+0  34857-3 0  9993
2 48240  87.9028  25.5655 0002180  75.5714 284.5657 13.14502303184790
ONEWEB-0201             
1 48241U 21031AH  25050.91654493  .00000281  00000+0  72332-3 0  9999
2 48241  87.9031  25.6105 0001902  79.3481 280.7862 13.14503880185024
